[Satellite]
VERSION=1.1
NAME=FLOCK 2K-10
NICKNAME=FLOCK 2K-10
TLE1=1 42895U 17042BY  18020.71187952  .00008887  00000-0  25993-3 0  9995
TLE2=2 42895  96.9935 284.8409 0010983 274.4265  85.5725 15.35419845 29005
